{
  "links" : {
    "next" : "https://api.nasa.gov/neo/rest/v1/feed?start_date=1999-11-23&end_date=1999-11-23&detailed=true&api_key=t0TVs3DtDT2H8Oy2Zy8m2eVrNsAVKAexjcZXUckd",
    "prev" : "https://api.nasa.gov/neo/rest/v1/feed?start_date=1999-11-21&end_date=1999-11-21&detailed=true&api_key=t0TVs3DtDT2H8Oy2Zy8m2eVrNsAVKAexjcZXUckd",
    "self" : "https://api.nasa.gov/neo/rest/v1/feed?start_date=1999-11-22&end_date=1999-11-22&detailed=true&api_key=t0TVs3DtDT2H8Oy2Zy8m2eVrNsAVKAexjcZXUckd"
  },
  "element_count" : 4,
  "near_earth_objects" : {
    "1999-11-22" : [ {
      "links" : {
        "self" : "https://api.nasa.gov/neo/rest/v1/neo/2003753?api_key=t0TVs3DtDT2H8Oy2Zy8m2eVrNsAVKAexjcZXUckd"
      },
      "neo_reference_id" : "2003753",
      "name" : "3753 Cruithne (1986 TO)",
      "nasa_jpl_url" : "http://ssd.jpl.nasa.gov/sbdb.cgi?sstr=2003753",
      "absolute_magnitude_h" : 15.6,
      "estimated_diameter" : {
        "kilometers" : {
          "estimated_diameter_min" : 2.0162991944,
          "estimated_diameter_max" : 4.5085820617
        },
        "meters" : {
          "estimated_diameter_min" : 2016.2991944276,
          "estimated_diameter_max" : 4508.5820617181
        },
        "miles" : {
          "estimated_diameter_min" : 1.2528698467,
          "estimated_diameter_max" : 2.8015021443
        },
        "feet" : {
          "estimated_diameter_min" : 6615.1550490457,
          "estimated_diameter_max" : 14791.9363713673
        }
      },
      "is_potentially_hazardous_asteroid" : false,
      "close_approach_data" : [ {
        "close_approach_date" : "1999-11-22",
        "epoch_date_close_approach" : 943257600000,
        "relative_velocity" : {
          "kilometers_per_second" : "19.3253240227",
          "kilometers_per_hour" : "69571.1664817132",
          "miles_per_hour" : "43228.8173063734"
        },
        "miss_distance" : {
          "astronomical" : "0.3166912697",
          "lunar" : "123.1929092407",
          "kilometers" : "47376340",
          "miles" : "29438294"
        },
        "orbiting_body" : "Earth"
      } ],
      "orbital_data" : {
        "orbit_id" : "134",
        "orbit_determination_date" : "2017-09-17 06:18:51",
        "orbit_uncertainty" : "0",
        "minimum_orbit_intersection" : ".0711992",
        "jupiter_tisserand_invariant" : "5.922",
        "epoch_osculation" : "2458000.5",
        "eccentricity" : ".5148546067939354",
        "semi_major_axis" : ".9977413648746207",
        "inclination" : "19.80535260970397",
        "ascending_node_longitude" : "126.2343971498261",
        "orbital_period" : "364.020124249115",
        "perihelion_distance" : ".4840496267800535",
        "perihelion_argument" : "43.83123465873408",
        "aphelion_distance" : "1.511433102969188",
        "perihelion_time" : "2458104.185878744163",
        "mean_anomaly" : "257.4591956285523",
        "mean_motion" : ".9889563131779939",
        "equinox" : "J2000"
      }
    }, {
      "links" : {
        "self" : "https://api.nasa.gov/neo/rest/v1/neo/2137099?api_key=t0TVs3DtDT2H8Oy2Zy8m2eVrNsAVKAexjcZXUckd"
      },
      "neo_reference_id" : "2137099",
      "name" : "137099 (1998 YW3)",
      "nasa_jpl_url" : "http://ssd.jpl.nasa.gov/sbdb.cgi?sstr=2137099",
      "absolute_magnitude_h" : 18.2,
      "estimated_diameter" : {
        "kilometers" : {
          "estimated_diameter_min" : 0.6089126221,
          "estimated_diameter_max" : 1.3615700154
        },
        "meters" : {
          "estimated_diameter_min" : 608.9126221057,
          "estimated_diameter_max" : 1361.5700153859
        },
        "miles" : {
          "estimated_diameter_min" : 0.3783606449,
          "estimated_diameter_max" : 0.846040122
        },
        "feet" : {
          "estimated_diameter_min" : 1997.7448871092,
          "estimated_diameter_max" : 4467.0933692788
        }
      },
      "is_potentially_hazardous_asteroid" : false,
      "close_approach_data" : [ {
        "close_approach_date" : "1999-11-22",
        "epoch_date_close_approach" : 943257600000,
        "relative_velocity" : {
          "kilometers_per_second" : "16.6182800586",
          "kilometers_per_hour" : "59825.8082108351",
          "miles_per_hour" : "37173.4306630047"
        },
        "miss_distance" : {
          "astronomical" : "0.3972048535",
          "lunar" : "154.5126800537",
          "kilometers" : "59421000",
          "miles" : "36922496"
        },
        "orbiting_body" : "Earth"
      } ],
      "orbital_data" : {
        "orbit_id" : "69",
        "orbit_determination_date" : "2017-04-06 09:27:56",
        "orbit_uncertainty" : "0",
        "minimum_orbit_intersection" : ".388359",
        "jupiter_tisserand_invariant" : "5.445",
        "epoch_osculation" : "2458000.5",
        "eccentricity" : ".4626233426488658",
        "semi_major_axis" : "1.100009023461051",
        "inclination" : "28.79291804959249",
        "ascending_node_longitude" : "94.2846531083093",
        "orbital_period" : "421.3983186368112",
        "perihelion_distance" : ".591119172083585",
        "perihelion_argument" : "194.8272082028749",
        "aphelion_distance" : "1.608898874838517",
        "perihelion_time" : "2458154.779546160167",
        "mean_anomaly" : "228.1991973832985",
        "mean_motion" : ".8542986150599042",
        "equinox" : "J2000"
      }
    }, {
      "links" : {
        "self" : "https://api.nasa.gov/neo/rest/v1/neo/3378561?api_key=t0TVs3DtDT2H8Oy2Zy8m2eVrNsAVKAexjcZXUckd"
      },
      "neo_reference_id" : "3378561",
      "name" : "(2007 MG)",
      "nasa_jpl_url" : "http://ssd.jpl.nasa.gov/sbdb.cgi?sstr=3378561",
      "absolute_magnitude_h" : 20.9,
      "estimated_diameter" : {
        "kilometers" : {
          "estimated_diameter_min" : 0.1756123185,
          "estimated_diameter_max" : 0.3926810818
        },
        "meters" : {
          "estimated_diameter_min" : 175.6123184804,
          "estimated_diameter_max" : 392.6810818086
        },
        "miles" : {
          "estimated_diameter_min" : 0.1091204019,
          "estimated_diameter_max" : 0.2440006365
        },
        "feet" : {
          "estimated_diameter_min" : 576.1559189633,
          "estimated_diameter_max" : 1288.3238004408
        }
      },
      "is_potentially_hazardous_asteroid" : false,
      "close_approach_data" : [ {
        "close_approach_date" : "1999-11-22",
        "epoch_date_close_approach" : 943257600000,
        "relative_velocity" : {
          "kilometers_per_second" : "22.1164364106",
          "kilometers_per_hour" : "79619.1710780869",
          "miles_per_hour" : "49472.2566068257"
        },
        "miss_distance" : {
          "astronomical" : "0.1749384544",
          "lunar" : "68.0510559082",
          "kilometers" : "26170420",
          "miles" : "16261545"
        },
        "orbiting_body" : "Earth"
      } ],
      "orbital_data" : {
        "orbit_id" : "20",
        "orbit_determination_date" : "2017-06-21 06:17:20",
        "orbit_uncertainty" : "0",
        "minimum_orbit_intersection" : ".102553",
        "jupiter_tisserand_invariant" : "4.875",
        "epoch_osculation" : "2458000.5",
        "eccentricity" : ".4675897330484522",
        "semi_major_axis" : "1.275017273864446",
        "inclination" : "24.87362965709096",
        "ascending_node_longitude" : "258.358105433953",
        "orbital_period" : "525.8628971794345",
        "perihelion_distance" : ".6788322871460044",
        "perihelion_argument" : "248.2143430882032",
        "aphelion_distance" : "1.871202260582887",
        "perihelion_time" : "2457862.218034274812",
        "mean_anomaly" : "94.66632448891185",
        "mean_motion" : ".6845890857311445",
        "equinox" : "J2000"
      }
    }, {
      "links" : {
        "self" : "https://api.nasa.gov/neo/rest/v1/neo/3620867?api_key=t0TVs3DtDT2H8Oy2Zy8m2eVrNsAVKAexjcZXUckd"
      },
      "neo_reference_id" : "3620867",
      "name" : "(2012 XE133)",
      "nasa_jpl_url" : "http://ssd.jpl.nasa.gov/sbdb.cgi?sstr=3620867",
      "absolute_magnitude_h" : 23.4,
      "estimated_diameter" : {
        "kilometers" : {
          "estimated_diameter_min" : 0.0555334912,
          "estimated_diameter_max" : 0.1241766613
        },
        "meters" : {
          "estimated_diameter_min" : 55.5334911581,
          "estimated_diameter_max" : 124.1766612574
        },
        "miles" : {
          "estimated_diameter_min" : 0.0345069009,
          "estimated_diameter_max" : 0.0771597762
        },
        "feet" : {
          "estimated_diameter_min" : 182.1964991311,
          "estimated_diameter_max" : 407.4037573197
        }
      },
      "is_potentially_hazardous_asteroid" : false,
      "close_approach_data" : [ {
        "close_approach_date" : "1999-11-22",
        "epoch_date_close_approach" : 943257600000,
        "relative_velocity" : {
          "kilometers_per_second" : "20.5205849828",
          "kilometers_per_hour" : "73874.1059381765",
          "miles_per_hour" : "45902.4965480853"
        },
        "miss_distance" : {
          "astronomical" : "0.3318560569",
          "lunar" : "129.0919952393",
          "kilometers" : "49644956",
          "miles" : "30847946"
        },
        "orbiting_body" : "Earth"
      } ],
      "orbital_data" : {
        "orbit_id" : "17",
        "orbit_determination_date" : "2017-04-06 08:47:37",
        "orbit_uncertainty" : "7",
        "minimum_orbit_intersection" : ".0019035",
        "jupiter_tisserand_invariant" : "7.864",
        "epoch_osculation" : "2458000.5",
        "eccentricity" : ".4329850033635031",
        "semi_major_axis" : ".7229851790812997",
        "inclination" : "6.709129775138304",
        "ascending_node_longitude" : "281.0828590324386",
        "orbital_period" : "224.5393797463317",
        "perihelion_distance" : ".4099434388850202",
        "perihelion_argument" : "337.0961006936121",
        "aphelion_distance" : "1.036026919277579",
        "perihelion_time" : "2457953.017528287965",
        "mean_anomaly" : "76.12780366474594",
        "mean_motion" : "1.603282241211772",
        "equinox" : "J2000"
      }
    } ]
  }
}